IRIDIUM 155             
1 43573U 18061E   21144.40813273  .00000083  00000-0  22494-4 0  9994
2 43573  86.3945 109.7774 0001791  81.7379 278.4020 14.34216104148223
IRIDIUM 154             
1 43574U 18061F   21144.59840712  .00000076  00000-0  20102-4 0  9999
2 43574  86.3949 109.7432 0002514  84.0359 276.1123 14.34219194148307
IRIDIUM 163             
1 43575U 18061G   21144.43984713  .00000080  00000-0  21459-4 0  9994
2 43575  86.3947 109.7811 0002487  98.5752 261.5725 14.34216672148251
IRIDIUM 156             
1 43576U 18061H   21144.55401178  .00000067  00000-0  16979-4 0  9993
2 43576  86.3947 109.7384 0002068  94.0888 266.0544 14.34215863148264
IRIDIUM 164             
1 43577U 18061J   21144.60475391  .00000082  00000-0  22128-4 0  9998
2 43577  86.3948 109.7294 0002505  87.7653 272.3830 14.34217634148313
IRIDIUM 159             
1 43578U 18061K   21144.43350621  .00000080  00000-0  21638-4 0  9991
2 43578  86.3945 109.7767 0002443  85.5848 274.5627 14.34217229148250
IRIDIUM 180             
1 43922U 19002A   21144.43300758  .00000101  00000-0  28829-4 0  9999
2 43922  86.4002  46.6108 0003183  87.6496 272.5065 14.34218147123864
IRIDIUM 176             
1 43923U 19002B   21144.48582152  .00000217  00000-0  30433-4 0  9997
2 43923  86.6136  46.6209 0002531  84.2313 275.9193 14.72249972127106
IRIDIUM 168             
1 43924U 19002C   21144.42666122  .00000096  00000-0  27128-4 0  9994
2 43924  86.4005  46.6384 0002468  82.6431 277.5046 14.34219253123845
IRIDIUM 173             
1 43925U 19002D   21144.48374000  .00000098  00000-0  27773-4 0  9990
2 43925  86.4001  46.5787 0002397  84.6507 275.4962 14.34217891123834
IRIDIUM 169             
1 43926U 19002E   21144.55566754  .00000077  00000-0  18773-4 0  9995
2 43926  86.4233  78.1481 0003795 336.7259  23.3767 14.38606184124309
IRIDIUM 172             
1 43927U 19002F   21144.19832230  .00000098  00000-0  27845-4 0  9994
2 43927  86.4002  46.7002 0002494  84.6805 275.4676 14.34219717123806
IRIDIUM 175             
1 43928U 19002G   21144.47964664  .00000209  00000-0  29160-4 0  9999
2 43928  86.6120  46.4482 0002572  99.9519 260.1989 14.72250946127091
IRIDIUM 171             
1 43929U 19002H   21144.45837484  .00000103  00000-0  29768-4 0  9994
2 43929  86.4011  46.6924 0002441  82.0059 278.1413 14.34218323123839
IRIDIUM 170             
1 43930U 19002J   21144.22010739  .00000219  00000-0  30895-4 0  9998
2 43930  86.6135  46.7382 0002669  87.8717 272.2806 14.72247477127070
IRIDIUM 167             
1 43931U 19002K   21144.45205204  .00000097  00000-0  27724-4 0  9998
2 43931  86.4001  46.6003 0002960  85.3091 274.8443 14.34217621123833
